NORAD_CAT_ID,OBJECT_NAME,OBJECT_TYPE,EPOCH,MEAN_MOTION,ECCENTRICITY,INCLINATION,RA_OF_ASC_NODE,ARG_OF_PERICENTER,MEAN_ANOMALY,BSTAR,MEAN_MOTION_DOT,MEAN_MOTION_DDOT,TLE_LINE0,TLE_LINE1,TLE_LINE2,SEMIMAJOR_AXIS,PERIOD,APOGEE,PERIGEE,DECAYED
55767.0,STARLINK-5606,PAYLOAD,2023-06-11 22:00:00,15.54218753,0.0003186,69.9992,233.8654,271.1398,229.0589,-0.014697,-0.00876669,0.0,0 STARLINK-5606,1 55767U 23028AC  23162.91667824 -.00876669  00000-0 -14697-1 0  9994,2 55767  69.9992 233.8654 0003186 271.1398 229.0589 15.54218753 16379,6782.562,92.651,406.587,402.266,0.0
55767.0,STARLINK-5606,PAYLOAD,2023-06-12 14:00:01,15.52925968,0.0003274,69.9996,232.0364,272.3757,355.3682,-0.015533,-0.00883265,0.0,0 STARLINK-5606,1 55767U 23028AC  23163.58335648 -.00883265  00000-0 -15533-1 0  9994,2 55767  69.9996 232.0364 0003274 272.3757 355.3682 15.52925968 16482,6786.325,92.728,410.412,405.968,0.0
55767.0,STARLINK-5606,PAYLOAD,2023-06-13 00:00:00,15.52082068,0.000334,69.9995,230.8949,269.011,166.7678,-0.01503,-0.00833455,0.0,0 STARLINK-5606,1 55767U 23028AC  23164.00001157 -.00833455  00000-0 -15030-1 0  9995,2 55767  69.9995 230.8949 0003340 269.0110 166.7678 15.52082068  1305,6788.785,92.779,412.917,408.383,0.0
55767.0,STARLINK-5606,PAYLOAD,2023-06-13 14:00:01,15.51145656,0.0003179,69.9999,229.299,273.6149,179.4772,0.0012082,0.00071245,0.0,0 STARLINK-5606,1 55767U 23028AC  23164.58334491  .00071245  00000-0  12082-2 0  9992,2 55767  69.9999 229.2990 0003179 273.6149 179.4772 15.51145656 16630,6791.517,92.835,415.541,411.223,0.0
55767.0,STARLINK-5606,PAYLOAD,2023-06-13 22:00:00,15.51183994,0.0003087,69.9996,228.3879,269.1616,244.7859,0.00011417,6.537e-05,0.0,0 STARLINK-5606,1 55767U 23028AC  23164.91667824  .00006537  00000-0  11417-3 0  9992,2 55767  69.9996 228.3879 0003087 269.1616 244.7859 15.51183994  1307,6791.405,92.832,415.367,411.174,0.0
55767.0,STARLINK-5606,PAYLOAD,2023-06-14 06:00:00,15.51449464,0.0003037,69.9998,227.4768,265.0453,309.742,-0.021994,-0.01171164,0.0,0 STARLINK-5606,1 55767U 23028AC  23165.25001157 -.01171164  00000-0 -21994-1 0  9992,2 55767  69.9998 227.4768 0003037 265.0453 309.7420 15.51449464 16731,6790.63,92.816,414.558,410.433,0.0
55767.0,STARLINK-5606,PAYLOAD,2023-06-14 14:00:01,15.50564229,0.0003197,69.9996,226.5657,272.5698,2.8813,-0.016742,-0.00875208,0.0,0 STARLINK-5606,1 55767U 23028AC  23165.58334491 -.00875208  00000-0 -16742-1 0  9992,2 55767  69.9996 226.5657 0003197 272.5698   2.8813 15.50564229 16796,6793.215,92.869,417.251,412.908,0.0
55767.0,STARLINK-5606,PAYLOAD,2023-06-14 22:00:00,15.49896575,0.0003421,69.9996,225.6556,269.5488,65.6531,-0.016921,-0.00864848,0.0,0 STARLINK-5606,1 55767U 23028AC  23165.91667824 -.00864848  00000-0 -16921-1 0  9995,2 55767  69.9996 225.6556 0003421 269.5488  65.6531 15.49896575  1302,6795.165,92.909,419.355,414.706,0.0
55767.0,STARLINK-5606,PAYLOAD,2023-06-15 06:00:00,15.49299065,0.0003628,69.9999,224.7468,269.4262,124.7161,-0.019133,-0.00962388,0.0,0 STARLINK-5606,1 55767U 23028AC  23166.25001157 -.00962388  00000-0 -19133-1 0  9990,2 55767  69.9999 224.7468 0003628 269.4262 124.7161 15.49299065 16892,6796.912,92.945,421.243,416.311,0.0
55767.0,STARLINK-5606,PAYLOAD,2023-06-15 14:00:01,15.48594211,0.0003604,69.9995,223.8384,276.0244,176.3087,-0.017646,-0.00861712,0.0,0 STARLINK-5606,1 55767U 23028AC  23166.58334491 -.00861712  00000-0 -17646-1 0  9992,2 55767  69.9995 223.8384 0003604 276.0244 176.3087 15.48594211  1303,6798.975,92.988,423.29,418.389,0.0
55767.0,STARLINK-5606,PAYLOAD,2023-06-15 20:00:01,15.48133111,0.000362,69.9992,223.1579,272.2906,133.1528,-0.019201,-0.00929801,0.0,0 STARLINK-5606,1 55767U 23028AC  23166.83334491 -.00929801  00000-0 -19201-1 0  9993,2 55767  69.9992 223.1579 0003620 272.2906 133.1528 15.48133111 16989,6800.325,93.015,424.651,419.728,0.0
55767.0,STARLINK-5606,PAYLOAD,2023-06-16 14:00:01,15.46643106,0.0003551,69.9993,221.119,272.6659,349.4967,-0.019046,-0.00868211,0.0,0 STARLINK-5606,1 55767U 23028AC  23167.58334491 -.00868211  00000-0 -19046-1 0  9990,2 55767  69.9993 221.1190 0003551 272.6659 349.4967 15.46643106  1306,6804.691,93.105,428.973,424.14,0.0
55767.0,STARLINK-5606,PAYLOAD,2023-06-16 22:00:00,15.45976484,0.0003518,69.999,220.2143,268.6252,48.5909,-0.019153,-0.00854473,0.0,0 STARLINK-5606,1 55767U 23028AC  23167.91667824 -.00854473  00000-0 -19153-1 0  9990,2 55767  69.9990 220.2143 0003518 268.6252  48.5909 15.45976484 17158,6806.647,93.145,430.907,426.118,0.0
55767.0,STARLINK-5606,PAYLOAD,2023-06-17 07:31:08,15.46850161,0.0004816,69.997,219.1433,288.1772,71.8887,-0.0048765,-0.00238682,0.0,0 STARLINK-5606,1 55767U 23028AC  23168.31328721 -.00238682  00000-0 -48765-2 0  9995,2 55767  69.9970 219.1433 0004816 288.1772  71.8887 15.46850161 17227,6804.084,93.092,429.226,422.672,0.0
55767.0,STARLINK-5606,PAYLOAD,2023-06-17 14:00:01,15.44696883,0.0003523,69.9986,218.4078,276.2705,148.6787,-0.020669,-0.00891852,0.0,0 STARLINK-5606,1 55767U 23028AC  23168.58334491 -.00891852  00000-0 -20669-1 0  9991,2 55767  69.9986 218.4078 0003523 276.2705 148.6787 15.44696883 17251,6810.406,93.222,434.67,429.872,0.0
55767.0,STARLINK-5606,PAYLOAD,2023-06-17 22:00:01,15.44010797,0.0003365,69.9987,217.506,271.0756,206.6522,-0.020014,-0.00836365,0.0,0 STARLINK-5606,1 55767U 23028AC  23168.91668981 -.00836365  00000-0 -20014-1 0  9994,2 55767  69.9987 217.5060 0003365 271.0756 206.6522 15.44010797  1301,6812.423,93.264,436.581,431.996,0.0
55767.0,STARLINK-5606,PAYLOAD,2023-06-18 06:00:00,15.43427705,0.0003324,69.9988,216.605,270.2531,259.3083,-0.02363,-0.00969427,0.0,0 STARLINK-5606,1 55767U 23028AC  23169.25001157 -.00969427  00000-0 -23630-1 0  9991,2 55767  69.9988 216.6050 0003324 270.2531 259.3083 15.43427705 17357,6814.139,93.299,438.269,433.739,0.0
55767.0,STARLINK-5606,PAYLOAD,2023-06-18 14:00:01,15.42742744,0.0003328,69.9983,215.7048,274.273,306.4913,-0.022222,-0.0089688,0.0,0 STARLINK-5606,1 55767U 23028AC  23169.58335648 -.00896880  00000-0 -22222-1 0  9990,2 55767  69.9983 215.7048 0003328 274.2730 306.4913 15.42742744  1304,6816.156,93.34,440.289,435.752,0.0
55767.0,STARLINK-5606,PAYLOAD,2023-06-18 22:00:00,15.42055051,0.0003329,69.9984,214.8054,268.5474,2.52,-0.021396,-0.00847695,0.0,0 STARLINK-5606,1 55767U 23028AC  23169.91667824 -.00847695  00000-0 -21396-1 0  9992,2 55767  69.9984 214.8054 0003329 268.5474   2.5200 15.42055051 17469,6818.182,93.382,442.317,437.777,0.0
55767.0,STARLINK-5606,PAYLOAD,2023-06-19 04:00:00,15.41643314,0.0003248,69.9986,214.1316,267.0913,311.1999,-0.025094,-0.00969433,0.0,0 STARLINK-5606,1 55767U 23028AC  23170.16667824 -.00969433  00000-0 -25094-1 0  9995,2 55767  69.9986 214.1316 0003248 267.0913 311.1999 15.41643314 17498,6819.396,93.407,443.476,439.046,0.0
55767.0,STARLINK-5606,PAYLOAD,2023-06-19 12:00:00,15.4093377,0.0003244,69.9985,213.2337,273.104,354.1895,-0.022997,-0.00875341,0.0,0 STARLINK-5606,1 55767U 23028AC  23170.50001157 -.00875341  00000-0 -22997-1 0  9997,2 55767  69.9985 213.2337 0003244 273.1040 354.1895 15.40933770 17551,6821.489,93.45,445.567,441.141,0.0
55767.0,STARLINK-5606,PAYLOAD,2023-06-19 12:24:59,15.42623592,0.000342,69.9961,213.191,264.3134,95.7658,-0.0063582,-0.00268384,0.0,0 STARLINK-5606,1 55767U 23028AC  23170.51735036 -.00268384  00000-0 -63582-2 0  9997,2 55767  69.9961 213.1910 0003420 264.3134  95.7658 15.42623592 17569,6816.507,93.347,440.703,436.04,0.0
55767.0,STARLINK-5606,PAYLOAD,2023-06-19 22:00:00,15.40092687,0.0003296,69.9981,212.1127,269.713,147.7192,-0.022517,-0.00836533,0.0,0 STARLINK-5606,1 55767U 23028AC  23170.91667824 -.00836533  00000-0 -22517-1 0  9999,2 55767  69.9981 212.1127 0003296 269.7130 147.7192 15.40092687 17616,6823.973,93.501,448.087,443.588,0.0
55767.0,STARLINK-5606,PAYLOAD,2023-06-20 04:00:00,15.39687444,0.0003377,69.9984,211.4408,267.985,94.9104,-0.026888,-0.0097305,0.0,0 STARLINK-5606,1 55767U 23028AC  23171.16667824 -.00973050  00000-0 -26888-1 0  9998,2 55767  69.9984 211.4408 0003377 267.9850  94.9104 15.39687444 17651,6825.17,93.525,449.34,444.73,0.0
55767.0,STARLINK-5606,PAYLOAD,2023-06-20 14:00:01,15.38837749,0.0003108,69.998,210.3218,276.1187,234.9616,-0.025905,-0.0091644,0.0,0 STARLINK-5606,1 55767U 23028AC  23171.58334491 -.00916440  00000-0 -25905-1 0  9994,2 55767  69.9980 210.3218 0003108 276.1187 234.9616 15.38837749  1304,6827.682,93.577,451.669,447.425,0.0
55767.0,STARLINK-5606,PAYLOAD,2023-06-20 22:00:00,15.38140383,0.0003112,69.998,209.4278,267.7456,289.0069,-0.024083,-0.00838875,0.0,0 STARLINK-5606,1 55767U 23028AC  23171.91667824 -.00838875  00000-0 -24083-1 0  9991,2 55767  69.9980 209.4278 0003112 267.7456 289.0069 15.38140383 17760,6829.746,93.62,453.736,449.485,0.0
55767.0,STARLINK-5606,PAYLOAD,2023-06-21 06:00:00,15.37540727,0.0003181,69.9982,208.5348,268.8441,332.7751,-0.027894,-0.00943438,0.0,0 STARLINK-5606,1 55767U 23028AC  23172.25001157 -.00943438  00000-0 -27894-1 0  9995,2 55767  69.9982 208.5348 0003181 268.8441 332.7751 15.37540727 17828,6831.521,93.656,455.559,451.213,0.0
55767.0,STARLINK-5606,PAYLOAD,2023-06-21 14:00:01,15.36885138,0.0003218,69.9978,207.6424,273.8337,11.8756,-0.02786,-0.00924141,0.0,0 STARLINK-5606,1 55767U 23028AC  23172.58334491 -.00924141  00000-0 -27860-1 0  9994,2 55767  69.9978 207.6424 0003218 273.8337  11.8756 15.36885138  1302,6833.464,93.696,457.528,453.13,0.0
55767.0,STARLINK-5606,PAYLOAD,2023-06-21 22:00:01,15.3618805,0.0003294,69.9981,206.7512,268.2686,60.8295,-0.025875,-0.00845481,0.0,0 STARLINK-5606,1 55767U 23028AC  23172.91668981 -.00845481  00000-0 -25875-1 0  9998,2 55767  69.9981 206.7512 0003294 268.2686  60.8295 15.36188050 17929,6835.531,93.739,459.648,455.144,0.0
55767.0,STARLINK-5606,PAYLOAD,2023-06-22 06:00:00,15.35581285,0.0003304,69.9983,205.8609,270.6835,100.8736,-0.029617,-0.00940492,0.0,0 STARLINK-5606,1 55767U 23028AC  23173.25001157 -.00940492  00000-0 -29617-1 0  9998,2 55767  69.9983 205.8609 0003304 270.6835 100.8736 15.35581285 17979,6837.331,93.776,461.456,456.937,0.0
